UNKNOWN                 
1 87300U 70025    25103.11788905  .00003322  00000+0  23489-2 0  9999
2 87300 100.0708  61.6390 0027268 222.9972 136.9057 13.98463577579059
UNKNOWN                 
1 87304U          25103.19673005  .00004751  00000+0  71982-3 0  9990
2 87304  74.0188  77.2737 0016780 111.1271 249.1698 14.74352939610576
UNKNOWN                 
1 87320U 71015    25102.30808082  .00003047  00000+0  19131-2 0  9993
2 87320  66.5950 306.7590 0425665 211.6459 145.8370 13.68895519560272
UNKNOWN                 
1 87334U          25103.46529442  .00028643  00000+0  20225-1 0  9996
2 87334  90.0119 271.5875 0069264 281.7143  77.6269 13.96563456352583
UNKNOWN                 
1 87335U          25100.42471855  .00029790  00000+0  20622-1 0  9999
2 87335  89.9956 268.3156 0083917 268.7443  90.4120 13.97131678352470
UNKNOWN                 
1 87405U 81053    25103.39184526  .00002367  00000+0  17227-2 0  9998
2 87405  82.7510 251.8005 0054322 305.6850  53.9267 13.95144143577212
UNKNOWN                 
1 87426U          25102.89317017  .00010022  00000+0  40721-2 0  9993
2 87426  65.7840 274.0878 0055913  56.7351  90.9131 14.27047940587769
UNKNOWN                 
1 87448U 70025    25103.46204178  .00003267  00000+0  26590-2 0  9999
2 87448 100.4595 280.0188 0065019 113.5847 247.2152 13.89723801575433
UNKNOWN                 
1 87456U 76126    25103.01007561  .00012208  00000+0  19602-2 0  9995
2 87456  65.7861  15.4066 0520048 132.2584 232.3840 14.09087119577103
UNKNOWN                 
1 87517U 76126    25102.44935365  .00007239  00000+0  22085-2 0  9998
2 87517  65.8216 106.6313 0668500  64.1120  10.1551 13.58700221559693
UNKNOWN                 
1 87541U 70025    25102.57237559  .00000171  00000+0  41471-3 0  9990
2 87541  99.7352 328.4136 0059835 132.1069 257.9326 13.35468299549441
UNKNOWN                 
1 87553U 76126    25103.62877866  .00003027  00000+0  94830-3 0  9999
2 87553  65.6717 223.4159 0704283 334.6439  22.1534 13.51872510558372
UNKNOWN                 
1 87557U 73086    25103.22493193  .00007251  00000+0  16506-1 0  9993
2 87557 101.7224 287.8265 0071820 197.1408 162.7277 13.25404297532747
UNKNOWN                 
1 87561U 76077    25103.45097047 -.00000059  00000+0 -11730-3 0  9991
2 87561 102.0352 167.4153 0173746  19.1699 353.8852 12.32163272512474
UNKNOWN                 
1 87565U 99025    25103.64122054  .00002503  00000+0  13793-2 0  9995
2 87565  99.9256  71.9432 0174744 108.5992 253.4239 14.05132503582287
UNKNOWN                 
1 87569U 99025    25103.71942949 -.00000025  00000+0  12150-3 0  9995
2 87569 101.9750 271.8658 0055529  10.6397   1.4747 12.68531281527654
UNKNOWN                 
1 87587U 93036    25102.59099782  .00000504  00000+0  16839-3 0  9993
2 87587  74.0257 194.3088 0021591 289.0067  70.8749 14.39903960598668
UNKNOWN                 
1 87590U 99025    25102.58465788  .00001143  00000+0  67120-3 0  9992
2 87590  98.8119 144.9350 0025551 252.0904 262.0964 14.09947079119834
UNKNOWN                 
1 87616U 76067    25096.95190712  .00000864  00000+0  30577-2 0  9991
2 87616  66.0344 279.7418 0637337 245.6432 275.2347 12.46492109505093
UNKNOWN                 
1 87624U 99025    25103.74622155  .00010791  00000+0  17981-2 0  9990
2 87624  98.6693  26.7720 0102186 286.5544  72.4454 14.66766519544624
UNKNOWN                 
1 87650U          25103.05366545  .00026155  00000+0  60283-2 0  9990
2 87650 100.2592 221.7193 0036284 266.5616  93.1423 14.54868675 44258
UNKNOWN                 
1 87672U 93016    25101.45738269  .00004375  00000+0  17994-2 0  9992
2 87672  70.8591 175.9680 0060595 286.9225  72.5265 14.26499538589467
UNKNOWN                 
1 87681U          25102.88352955  .00001450  00000+0  15619-2 0  9998
2 87681  66.7380 316.0396 0163927 321.7245  37.2276 13.70549348568417
UNKNOWN                 
1 87690U 76126    25103.17902735  .00020777  00000+0  30863-2 0  9991
2 87690  65.7931 265.4825 0598735 172.8181 188.1979 13.96920369573310
UNKNOWN                 
1 87706U          25103.43088734  .00007871  00000+0  14553-2 0  9998
2 87706  98.6658 274.5842 0108603 300.3700  88.4799 14.61913661542942
UNKNOWN                 
1 87725U 81053    25102.00567541  .00025104  00000+0  34740-2 0  9995
2 87725  82.8659 115.1124 0019720 134.0909 226.1931 14.77786718597594
UNKNOWN                 
1 87730U          25097.19153157  .00000192  00000+0  18719-3 0  9990
2 87730  82.9445  58.7496 0029620 342.2344  17.7773 13.74458178551055
UNKNOWN                 
1 87737U 99025    25103.11740030  .00000108  00000+0  15471-3 0  9993
2 87737  99.4129 339.7840 0134086 104.3496 257.2580 13.72293338570441
UNKNOWN                 
1 87764U 76126    25103.76336887  .00014356  00000+0  23977-2 0  9991
2 87764  65.6716 108.5895 0392314 202.2568 332.6022 14.29957339584320
UNKNOWN                 
1 87771U 75052    25102.99211712  .00000170  00000+0  52385-3 0  9994
2 87771 100.7569 293.7307 0119561 194.3993 165.3702 13.19443415502941
UNKNOWN                 
1 87782U 73086    25103.28828027  .00004453  00000+0  15122-1 0  9991
2 87782 102.3327 303.4671 0046409   1.6658 358.4584 12.98918834536368
UNKNOWN                 
1 87843U 70025    25103.09767538  .00004092  00000+0  94222-2 0  9995
2 87843  99.6766 237.8415 0245226 214.4620 144.0382 13.15453677532111
UNKNOWN                 
1 87845U          25103.73296977  .00001850  00000+0  35024-2 0  9992
2 87845  98.8311 109.3798 0581006  93.1770 273.5938 12.88162767533914
UNKNOWN                 
1 87878U          25103.23589489  .00008018  00000+0  26102-2 0  9996
2 87878  99.1420 206.3532 0035899 258.4970 101.2183 14.38646927576267
UNKNOWN                 
1 87884U 99025    25103.10436395  .00000658  00000+0  38471-3 0  9996
2 87884  98.7162 215.7205 0154715  34.2726 326.8310 14.05788587584136
UNKNOWN                 
1 87898U 99025    25102.27386891  .00095900  00000+0  11310-1 0  9998
2 87898  98.8720  33.7894 0054394 189.3068 170.7140 14.83171692594066
UNKNOWN                 
1 87934U          25102.32506463  .00000157  00000+0  15377-3 0  9998
2 87934  82.9331 120.3523 0030675 358.5768  13.4588 13.73065038570779
UNKNOWN                 
1 87991U 77065    25100.00076480 -.00000003  00000+0 -13526-3 0  9996
2 87991  28.6196 216.0408 0896292 155.5021 209.0914 12.34499102492481
UNKNOWN                 
1 87998U 99025    25096.79743251  .00001743  00000+0  98785-3 0  9990
2 87998  98.6039 112.9154 0025944 234.6569 125.2178 14.11126273513643
UNKNOWN                 
1 89003U          25078.86986922  .00000831  00000+0  29481-3 0  9990
2 89003  74.0476 146.0720 0016982 270.6777  89.2430 14.35961574593099
UNKNOWN                 
1 89005U          25103.01964567  .00005190  00000+0  12074-2 0  9991
2 89005  97.8583 310.5413 0197230  60.9448 301.1343 14.43990724498902
UNKNOWN                 
1 89029U          25101.43834924  .00010197  00000+0  10185-2 0  9998
2 89029  98.0735 354.8605 0025540  56.0041 304.3598 14.91455195614484
UNKNOWN                 
1 89067U          25103.62400858  .00145339  42829-5  13041-2 0  9990
2 89067  80.9498 170.4546 0209975 237.5794 120.4989 15.44901844549962
UNKNOWN                 
1 89101U          25096.05238021  .00000365  00000+0  12196-2 0  9996
2 89101 100.4403  41.0515 0147054 307.3161  51.4619 13.03956838522170
UNKNOWN                 
1 89132U          25103.66650458  .00005129  00000+0  63740-2 0  9992
2 89132  63.4557 332.4254 2946831 319.7459  21.8149  8.85857766303572
UNKNOWN                 
1 89146U          25103.02403826  .00009241  00000+0  17830-2 0  9990
2 89146  98.2374  32.5476 0099157  96.4828 264.7673 14.60550923593274
UNKNOWN                 
1 89161U          25103.49207900  .00045862  00000+0  24288-2 0  9997
2 89161  97.6777 113.7575 0064224 190.1312 169.8629 15.13456210511549
UNKNOWN                 
1 89172U 81053    25099.39146048  .00030019  00000+0  53015-2 0  9992
2 89172  82.0675  92.7154 0311674 318.7953  39.0076 14.40245644743792
UNKNOWN                 
1 89177U          25083.79264291  .00000204  00000+0  20103-3 0  9994
2 89177  82.9171 104.0932 0033098 151.9257 208.3693 13.73675626 26728
UNKNOWN                 
1 89183U          25101.22708766  .00001125  00000+0  10306-2 0  9996
2 89183  99.2225  17.9899 0132039  89.5403 272.0879 13.81233016573075
UNKNOWN                 
1 89184U          25102.86730000  .00032089  00000+0  52681-2 0  9999
2 89184  98.4080 318.4814 0012249 180.5403 179.5791 14.70512137456228
UNKNOWN                 
1 89213U          25103.43577822  .00001015  00000+0  67538-3 0  9990
2 89213  98.8125 349.0131 0229691  73.9039 288.7278 13.91268669418836
UNKNOWN                 
1 89251U          25103.01721601  .00054010  00000+0  28218-1 0  9995
2 89251  62.4731 319.7486 2897982  77.9739 312.7526  9.15311872350747
UNKNOWN                 
1 89261U          25103.26593587  .00001954  00000+0  60089-3 0  9996
2 89261  98.1471 108.3363 0013177 172.0220 188.1182 14.42531307498702
UNKNOWN                 
1 89304U          25103.46936818  .00018171  00000+0  46215-1 0  9996
2 89304  84.5338 166.4036 2767398 294.4505  47.8082  8.96542984416537
UNKNOWN                 
1 89314U          25102.73014914  .00014193  00000+0  16546-1 0  9994
2 89314  19.1207 294.2271 6997871  51.8717 352.7552  2.58750973 82500
UNKNOWN                 
1 89349U          25103.14276532  .00000180  00000+0  60314-3 0  9999
2 89349  90.2493   1.8931 0029510 183.6565 176.4343 12.96144220447199
UNKNOWN                 
1 89379U          25103.70654089  .00006654  00000+0  88424-2 0  9994
2 89379 100.4847 101.3233 0045360   9.2794 350.9172 13.60528567547707
UNKNOWN                 
1 89395U          25102.45520318  .00000052  00000+0  10565-2 0  9997
2 89395 102.3426  84.6760 0223742 180.6482 333.7629 12.01462217495405
UNKNOWN                 
1 89403U          25103.47136353 -.00000975  00000+0 -33420-2 0  9993
2 89403  90.2453   0.3120 0028249 136.8188  37.3106 12.98295457446258
